GAOFEN-2                
1 40118U 14049A   26204.86512399  .00000667  00000+0  93049-4 0  9996
2 40118  98.0089 269.0335 0008681 110.7983 249.4160 14.80935318644664
GAOFEN-3                
1 41727U 16049A   26204.85427579 -.00000029  00000+0  42950-5 0  9998
2 41727  98.4029 212.0876 0001777  82.3084 277.8307 14.42219020523939
GAOFEN-1 03             
1 43260U 18031B   26204.87280463  .00000642  00000+0  99666-4 0  9991
2 43260  98.0501 267.1475 0001718 346.7975  13.3190 14.76471568448103
GAOFEN-1 04             
1 43262U 18031D   26204.84861228  .00000167  00000+0  31433-4 0  9994
2 43262  98.0509 267.3185 0000786  58.5313 301.5973 14.76444748448090
GAOFEN-11 01            
1 43585U 18063A   26204.83475689  .00012807  00000+0  18365-3 0  9990
2 43585  97.1271 271.6305 0004186 168.3194 191.8159 15.56270542446048
GAOFEN-10R              
1 44622U 19066A   26204.85735361  .00001136  00000+0  14625-3 0  9993
2 44622  98.0519 158.7073 0006355  29.2132 330.9436 14.83072011367811
GAOFEN-12 01            
1 44819U 19082A   26204.84719193  .00000353  00000+0  52759-4 0  9994
2 44819  97.8115 210.2613 0000627  78.3496 281.7787 14.80484793359517
GAOFEN-12 02            
1 48079U 21026A   26204.86220126  .00000342  00000+0  51750-4 0  9990
2 48079  97.9947 202.8964 0006213 110.0484 250.1397 14.80321078287183
GAOFEN-12 03            
1 52912U 22069A   26204.83071903  .00000531  00000+0  76753-4 0  9993
2 52912  97.8229  91.7690 0002259  63.3316 296.8127 14.80084327220039
GAOFEN-12 04            
1 57654U 23123A   26204.85215233  .00000919  00000+0  12895-3 0  9997
2 57654  97.9098 122.3192 0003008  31.6588 328.4804 14.79787741158056
